satname,norad_id,inclination_deg,eccentricity,mean_motion_rev_per_day,perigee_km,apogee_km,l1,l2
STARLINK-1234,45190,53.0341,0.0002239,15.84700926,315.66791019991433,318.66606732608216,1 45190U 20012N   26189.92433128  .00097522  00000+0  41116-3 0  9992,2 45190  53.0341  84.3421 0002239 210.4526 149.6367 15.84700926354948
STARLINK-1269,45197,53.1568,0.0003309,15.37735002,450.54847046794384,455.06919041853143,1 45197U 20012V   26191.38091262  .00031554  00000+0  84579-3 0  9994,2 45197  53.1568 187.2438 0003309  21.3866 338.7276 15.37735002353730
STARLINK-1154,45198,53.0396,0.0004152,15.66404469,366.4010500403656,372.00404079888176,1 45198U 20012W   26191.22667782  .00039330  00000+0  37500-3 0  9996,2 45198  53.0396 135.7433 0004152  77.8757 282.2723 15.66404469354388
STARLINK-1199,45201,53.1547,0.0005703,15.37644159,449.182031126782,456.97371481088976,1 45201U 20012Z   26190.37746770  .00044806  00000+0  11977-2 0  9994,2 45201  53.1547 176.2308 0005703  27.3986 332.7318 15.37644159353829
STARLINK-1209,45206,53.0347,0.0001279,15.74175781,346.11747345434014,347.83775777301435,1 45206U 20012AE  26190.13177063  .00060024  00000+0  41139-3 0  9990,2 45206  53.0347 100.1748 0001279 185.8306 174.2698 15.74175781353893
STARLINK-1231,45212,53.035,0.0002379,15.29939238,474.36317062191847,477.62436604149025,1 45212U 20012AL  26191.36480300  .00038761  00000+0  13244-2 0  9992,2 45212  53.0350 168.1970 0002379  93.2745 266.8527 15.29939238353957
STARLINK-1271,45217,53.1532,0.0005233,15.37886881,448.7846829873006,455.93348018628876,1 45217U 20012AR  26191.34601526  .00038468  00000+0  10226-2 0  9991,2 45217  53.1532 171.7597 0005233  36.6947 323.4415 15.37886881353979
STARLINK-1191,45222,53.1526,0.0003213,15.42062685,437.8318131775013,442.2131624643753,1 45222U 20012AW  26189.61847092  .00038195  00000+0  88556-3 0  9993,2 45222  53.1526 151.9653 0003213  17.2707 342.8407 15.42062685354102
STARLINK-1212,45223,53.0373,0.0001427,15.73043733,349.2436005137797,351.1638689594738,1 45223U 20012AX  26191.86241896  .00046667  00000+0  33725-3 0  9995,2 45223  53.0373 107.1639 0001427 160.3015 199.8058 15.73043733354903
STARLINK-1215,45225,53.1551,0.0004915,15.37895062,448.9776809361174,455.692034772389,1 45225U 20012AZ  26190.30270857  .00019670  00000+0  52917-3 0  9992,2 45225  53.1551 150.8954 0004915  38.9453 321.1905 15.37895062354136
STARLINK-1221,45227,53.0637,0.0002914,15.46417182,425.2340635424107,429.20022393738236,1 45227U 20012BB  26189.89372006  .00012784  00000+0  26238-3 0  9991,2 45227  53.0637  53.4711 0002914  52.4354 307.6917 15.46417182355438
STARLINK-1222,45228,53.0504,0.0003703,15.57462102,392.49693832619505,397.51312731570215,1 45228U 20012BC  26191.38074648  .00026325  00000+0  35745-3 0  9999,2 45228  53.0504 111.1455 0003703  92.6619 267.4816 15.57462102354698
STARLINK-1226,45229,53.1529,0.0005357,15.47683129,419.8619806665147,427.1492605702442,1 45229U 20012BD  26191.24204577  .00050893  00000+0  97025-3 0  9997,2 45229  53.1529 140.3898 0005357  40.0068 320.1334 15.47683129354307
STARLINK-1227,45230,53.1496,0.0005073,15.47789044,419.74501085217435,426.64564263088596,1 45230U 20012BE  26191.24987316  .00047648  00000+0  90602-3 0  9996,2 45230  53.1496 140.4301 0005073  35.6032 324.5314 15.47789044354420
STARLINK-1246,45235,53.1544,0.0004972,15.37888233,448.9589576730841,455.7511989957802,1 45235U 20012BK  26190.99527511  .00027526  00000+0  73577-3 0  9994,2 45235  53.1544 188.6598 0004972   4.2236 355.8809 15.37888233353734
STARLINK-1270,45237,53.038,0.0001632,15.71918836,352.3147210565521,354.51189907775824,1 45237U 20012BM  26191.15968015  .00052942  00000+0  40035-3 0  9996,2 45237  53.0380 112.5628 0001632 165.8392 194.2672 15.71918836354768
STARLINK-1279,45360,53.0307,0.0004166,15.86331549,309.7906895333581,315.3653933058695,1 45360U 20019A   26191.76638600  .00120456  00000+0  46736-3 0  9991,2 45360  53.0307 209.4837 0004166  26.3620 333.7615 15.86331549350019
STARLINK-1301,45361,53.0303,0.0006252,15.87652261,304.6862984119671,313.0477282302236,1 45361U 20019B   26190.49062443  .00113645  00000+0  41345-3 0  9990,2 45361  53.0303 217.9099 0006252  25.7495 334.3839 15.87652261349797
STARLINK-1262,45366,53.1523,0.000191,15.36954976,453.81468286877134,456.42498697971314,1 45366U 20019G   26191.37773387  .00028731  00000+0  79105-3 0  9995,2 45366  53.1523 313.5407 0001910 256.1119 103.9673 15.36954976348564
STARLINK-1273,45367,53.0423,0.0001507,15.61790575,381.46599615399737,383.50364757110674,1 45367U 20019H   26190.48209330  .00043151  00000+0  49262-3 0  9993,2 45367  53.0423 287.6437 0001507 324.2948  35.7964 15.61790575348821
STARLINK-1277,45369,53.0406,0.0002737,15.70488472,355.65643794632797,359.3435256301582,1 45369U 20019K   26190.52003184  .00047170  00000+0  37946-3 0  9990,2 45369  53.0406 279.5262 0002737  12.5504 347.5581 15.70488472348943
STARLINK-1281,45370,53.1558,0.0001442,15.37791461,451.65663535837575,453.6266319163178,1 45370U 20019L   26191.37175147  .00037372  00000+0  99734-3 0  9991,2 45370  53.1558 313.0170 0001442 221.9037 138.1857 15.37791461348572
STARLINK-1300,45374,53.1558,0.0001669,15.38353989,449.8365515390533,452.1161095687921,1 45374U 20019Q   26191.30671099  .00037496  00000+0  98252-3 0  9996,2 45374  53.1558 313.0982 0001669 239.0145 121.0695 15.38353989348568
STARLINK-1302,45375,53.0432,8.28e-05,15.70808522,356.02739810188086,357.1426680705599,1 45375U 20019R   26191.25375241  .00050876  00000+0  40335-3 0  9997,2 45375  53.0432 271.6935 0000828  92.3796 267.7316 15.70808522349118
STARLINK-1304,45376,53.0406,6.97e-05,15.66474085,368.53236169456795,369.47291296001185,1 45376U 20019S   26191.21344252  .00038643  00000+0  36765-3 0  9992,2 45376  53.0406 274.1764 0000697 310.6992  49.3963 15.66474085349071
STARLINK-1305,45377,53.0356,0.0006905,15.75988081,337.18082030241476,346.46108223311603,1 45377U 20019T   26191.17655496  .00069147  00000+0  43644-3 0  9990,2 45377  53.0356 250.7930 0006905   4.0653 356.0421 15.75988081349407
STARLINK-1319,45379,53.0339,0.0003852,15.8389668,316.8533166519601,322.0131247499876,1 45379U 20019V   26191.63653094  .00086960  00000+0  38164-3 0  9998,2 45379  53.0339 238.5403 0003852  21.7007 338.4178 15.83896680349614
STARLINK-1266,45383,53.043,0.0004179,15.68984128,358.98809736353815,364.62134065228474,1 45383U 20019Z   26191.17813606  .00044948  00000+0  38502-3 0  9995,2 45383  53.0430 258.7246 0004179   2.4263 357.6773 15.68984128349288
STARLINK-1267,45384,53.0408,0.0002471,15.73551059,347.09525923583533,350.41969048531064,1 45384U 20019AA  26191.16273334  .00060189  00000+0  42368-3 0  9993,2 45384  53.0408 249.4760 0002471  32.1457 327.9711 15.73551059349416
STARLINK-1272,45386,53.0362,0.0002793,15.78609088,332.5058676587396,336.2554800313501,1 45386U 20019AC  26191.47212551  .00068439  00000+0  38506-3 0  9998,2 45386  53.0362 225.6265 0002793  44.3676 315.7567 15.78609088349772
STARLINK-1274,45387,53.0166,0.0006027,15.6843415,359.31710703038334,367.4433318867177,1 45387U 20019AD  26191.11656646  .00105578  00000+0  91106-3 0  9998,2 45387  53.0166 228.7253 0006027 320.2220  39.8353 15.68434150349694
STARLINK-1280,45388,53.0303,0.0006735,15.91405155,293.85328247893176,302.8465103283879,1 45388U 20019AE  26191.91668980  .00210953  27599-4  64887-3 0  9998,2 45388  53.0303 227.9661 0006735  21.9995  93.7550 15.91405155  6071
STARLINK-1283,45389,53.0346,0.0004229,15.76045805,338.8150667072987,344.4986683604584,1 45389U 20019AF  26191.68950257  .00056783  00000+0  35905-3 0  9995,2 45389  53.0346 223.7394 0004229 359.2854   0.8158 15.76045805349824
STARLINK-1284,45390,53.0391,0.0003939,15.74113383,344.5062445645608,349.8044298678187,1 45390U 20019AG  26191.74402410  .00058350  00000+0  40107-3 0  9999,2 45390  53.0391 247.7882 0003939  60.4560 299.6851 15.74113383349481
STARLINK-1297,45395,53.0396,0.0003513,15.77183914,336.0642448075014,340.783300406335,1 45395U 20019AM  26191.79853603  .00061714  00000+0  37065-3 0  9990,2 45395  53.0396 246.2805 0003513  24.1171 336.0012 15.77183914348690
STARLINK-1307,45397,53.0505,0.00016,15.5893597,389.6523100011,391.8183491465634,1 45397U 20019AP  26191.21342638  .00024681  00000+0  31767-3 0  9995,2 45397  53.0505 258.7496 0001600   5.6927 354.4103 15.58935970349115
STARLINK-1255,45399,53.0312,0.0001135,15.68808056,361.54396477401133,363.0740460172374,1 45399U 20019AR  26190.48281131  .00037837  00000+0  32763-3 0  9999,2 45399  53.0312 227.9029 0001135 323.9181  36.1758 15.68808056349467
STARLINK-1260,45404,53.155,0.0001377,15.40952127,442.3586629448382,444.2372861368276,1 45404U 20019AW  26190.50511413  .00032020  00000+0  77252-3 0  9999,2 45404  53.1550 279.0878 0001377 260.3486  99.7364 15.40952127348689
STARLINK-1263,45405,53.1557,0.0002643,15.38075446,449.9956474343862,453.6059525554638,1 45405U 20019AX  26191.25115895  .00034265  00000+0  90723-3 0  9998,2 45405  53.1557 277.5105 0002643 291.0794  68.9927 15.38075446348773
STARLINK-1265,45406,53.1538,0.000153,15.41473994,440.7148429137724,442.80173087156163,1 45406U 20019AY  26191.59196400  .00029318  00000+0  69627-3 0  9999,2 45406  53.1538 273.8552 0001530 332.2319  27.8605 15.41473994348853
STARLINK-1278,45408,53.0363,0.0002195,15.78338508,333.6742525735426,336.6213846089049,1 45408U 20019BA  26191.61284712  .00053028  00000+0  30342-3 0  9995,2 45408  53.0363 245.8786 0002195  33.4113 326.7045 15.78338508349220
STARLINK-1296,45412,53.154,8.17e-05,15.41627411,440.7486705775218,441.86296753415536,1 45412U 20019BE  26191.36825551  .00038525  00000+0  90621-3 0  9995,2 45412  53.1540 274.5592 0000817 288.6174  71.4743 15.41627411348825
STARLINK-1309,45414,53.0566,0.0003243,15.76542794,338.0657913006535,342.4233335820536,1 45414U 20019BG  26191.15364732  .00067959  00000+0  41920-3 0  9994,2 45414  53.0566 242.5141 0003243  33.0281 327.0941 15.76542794349218
